$$SOE
2459580.500000000, A.D. 2022-Jan-01 00:00:00.0000, -2.486752518036444E+08, 2.416886312070063E+08, -7.811918350325502E+07,
2459587.500000000, A.D. 2022-Jan-08 00:00:00.0000, -2.580594478487052E+08, 2.338533131672587E+08, -7.803160683432721E+07,
2459594.500000000, A.D. 2022-Jan-15 00:00:00.0000, -2.671681470308877E+08, 2.257682630038325E+08, -7.786070271464497E+07,
2459601.500000000, A.D. 2022-Jan-22 00:00:00.0000, -2.759950809247041E+08, 2.174450384679326E+08, -7.760766283383028E+07,
2459608.500000000, A.D. 2022-Jan-29 00:00:00.0000, -2.845345208234775E+08, 2.088952467645263E+08, -7.727376293118086E+07,
2459615.500000000, A.D. 2022-Feb-05 00:00:00.0000, -2.927812690317331E+08, 2.001305166731761E+08, -7.686035625672527E+07,
2459622.500000000, A.D. 2022-Feb-12 00:00:00.0000, -3.007306466684352E+08, 1.911624712518342E+08, -7.636886742459117E+07,
2459629.500000000, A.D. 2022-Feb-19 00:00:00.0000, -3.083784794794813E+08, 1.820027035049782E+08, -7.580078636776221E+07,
2459636.500000000, A.D. 2022-Feb-26 00:00:00.0000, -3.157210831455496E+08, 1.726627542966447E+08, -7.515766236012660E+07,
2459643.500000000, A.D. 2022-Mar-05 00:00:00.0000, -3.227552480909295E+08, 1.631540918852433E+08, -7.444109819546536E+07,
2459650.500000000, A.D. 2022-Mar-12 00:00:00.0000, -3.294782237256552E+08, 1.534880929960008E+08, -7.365274456954600E+07,
2459657.500000000, A.D. 2022-Mar-19 00:00:00.0000, -3.358877021936486E+08, 1.436760254297500E+08, -7.279429468606956E+07,
2459664.500000000, A.D. 2022-Mar-26 00:00:00.0000, -3.419818017375220E+08, 1.337290321631399E+08, -7.186747910166119E+07,
2459671.500000000, A.D. 2022-Apr-02 00:00:00.0000, -3.477590497344764E+08, 1.236581168370405E+08, -7.087406082973392E+07,
2459678.500000000, A.D. 2022-Apr-09 00:00:00.0000, -3.532183652426226E+08, 1.134741305834560E+08, -6.981583073356487E+07,
2459685.500000000, A.D. 2022-Apr-16 00:00:00.0000, -3.583590408011897E+08, 1.031877607844037E+08, -6.869460319075936E+07,
2459692.500000000, A.D. 2022-Apr-23 00:00:00.0000, -3.631807248444683E+08, 9.280952278114206E+07, -6.751221182480568E+07,
2459699.500000000, A.D. 2022-Apr-30 00:00:00.0000, -3.676834066834658E+08, 8.234975221982954E+07, -6.627050531553391E+07,
2459706.500000000, A.D. 2022-May-07 00:00:00.0000, -3.718674010665917E+08, 7.181859599209295E+07, -6.497134372883002E+07,
2459713.500000000, A.D. 2022-May-14 00:00:00.0000, -3.757333309896895E+08, 6.122600473839733E+07, -6.361659523899336E+07,
2459720.500000000, A.D. 2022-May-21 00:00:00.0000, -3.792821108389952E+08, 5.058172759810604E+07, -6.220813298885882E+07,
2459727.500000000, A.D. 2022-May-28 00:00:00.0000, -3.825149303952667E+08, 3.989530817432004E+07, -6.074783211684037E+07,
2459734.500000000, A.D. 2022-Jun-04 00:00:00.0000, -3.854332394636763E+08, 2.917608133122751E+07, -5.923756699565852E+07,
2459741.500000000, A.D. 2022-Jun-11 00:00:00.0000, -3.880387330177327E+08, 1.843317075817491E+07, -5.767920868802590E+07,
2459748.500000000, A.D. 2022-Jun-18 00:00:00.0000, -3.903333368447177E+08, 7.675487246972863E+06, -5.607462261318562E+07,
2459755.500000000, A.D. 2022-Jun-25 00:00:00.0000, -3.923191936838294E+08, -3.088272415468760E+06, -5.442566642083730E+07,
2459762.500000000, A.D. 2022-Jul-02 00:00:00.0000, -3.939986497385361E+08, -1.384962606705359E+07, -5.273418808101834E+07,
2459769.500000000, A.D. 2022-Jul-09 00:00:00.0000, -3.953742411835478E+08, -2.460030618530902E+07, -5.100202420194279E+07,
2459776.500000000, A.D. 2022-Jul-16 00:00:00.0000, -3.964486807275453E+08, -3.533225827092329E+07, -4.923099847270638E+07,
2459783.500000000, A.D. 2022-Jul-23 00:00:00.0000, -3.972248464325103E+08, -4.603763757684609E+07, -4.742292001348069E+07,
2459790.500000000, A.D. 2022-Jul-30 00:00:00.0000, -3.977057727071259E+08, -5.670880758873299E+07, -4.557958190636074E+07,
2459797.500000000, A.D. 2022-Aug-06 00:00:00.0000, -3.978946398744992E+08, -6.733833965525417E+07, -4.370276017521159E+07,
2459804.500000000, A.D. 2022-Aug-13 00:00:00.0000, -3.977947631298140E+08, -7.791901105671769E+07, -4.179421290401365E+07,
2459811.500000000, A.D. 2022-Aug-20 00:00:00.0000, -3.974095824465682E+08, -8.844380205794868E+07, -3.985567938139182E+07,
2459818.500000000, A.D. 2022-Aug-27 00:00:00.0000, -3.967426533537291E+08, -9.890589271281953E+07, -3.788887932878447E+07,
2459825.500000000, A.D. 2022-Sep-03 00:00:00.0000, -3.957976383262880E+08, -1.092986595677802E+08, -3.589551223635148E+07,
2459832.500000000, A.D. 2022-Sep-10 00:00:00.0000, -3.945782986875430E+08, -1.196156722737507E+08, -3.387725680521054E+07,
2459839.500000000, A.D. 2022-Sep-17 00:00:00.0000, -3.930884869804547E+08, -1.298506901389564E+08, -3.183577049132916E+07,
2459846.500000000, A.D. 2022-Sep-24 00:00:00.0000, -3.913321397336752E+08, -1.399976587021883E+08, -2.977268915369286E+07,
2459853.500000000, A.D. 2022-Oct-01 00:00:00.0000, -3.893132703680074E+08, -1.500507063748149E+08, -2.768962682393054E+07,
2459860.500000000, A.D. 2022-Oct-08 00:00:00.0000, -3.870359618211144E+08, -1.600041406525047E+08, -2.558817558569120E+07,
2459867.500000000, A.D. 2022-Oct-15 00:00:00.0000, -3.845043598059284E+08, -1.698524427175056E+08, -2.346990537402861E+07,
2459874.500000000, A.D. 2022-Oct-22 00:00:00.0000, -3.817226688665518E+08, -1.795902621337751E+08, -2.133636362634200E+07,
2459881.500000000, A.D. 2022-Oct-29 00:00:00.0000, -3.786951487165390E+08, -1.892124142462655E+08, -1.918907522058836E+07,
2459888.500000000, A.D. 2022-Nov-05 00:00:00.0000, -3.754261087431337E+08, -1.987138775594563E+08, -1.702954266432492E+07,
2459895.500000000, A.D. 2022-Nov-12 00:00:00.0000, -3.719199026244013E+08, -2.080897898430898E+08, -1.485924624622381E+07,
2459902.500000000, A.D. 2022-Nov-19 00:00:00.0000, -3.681809237624251E+08, -2.173354439345350E+08, -1.267964415827414E+07,
2459909.500000000, A.D. 2022-Nov-26 00:00:00.0000, -3.642136012573479E+08, -2.264462836493491E+08, -1.049217264192748E+07,
2459916.500000000, A.D. 2022-Dec-03 00:00:00.0000, -3.600223962448539E+08, -2.354178998228912E+08, -8.298246170960173E+06,
2459923.500000000, A.D. 2022-Dec-10 00:00:00.0000, -3.556117985394579E+08, -2.442460264727030E+08, -6.099257669986114E+06,
2459930.500000000, A.D. 2022-Dec-17 00:00:00.0000, -3.509863235454027E+08, -2.529265371134640E+08, -3.896578769180641E+06,
2459937.500000000, A.D. 2022-Dec-24 00:00:00.0000, -3.461505093117347E+08, -2.614554412965440E+08, -1.691560107118353E+06,
2459944.500000000, A.D. 2022-Dec-31 00:00:00.0000, -3.411089133601257E+08, -2.698288812723491E+08, 5.144682974557877E+05,
2459951.500000000, A.D. 2023-Jan-07 00:00:00.0000, -3.358661091493274E+08, -2.780431278179939E+08, 2.720196675227046E+06,
2459958.500000000, A.D. 2023-Jan-14 00:00:00.0000, -3.304266841299407E+08, -2.860945747376724E+08, 4.924335360910565E+06,
2459965.500000000, A.D. 2023-Jan-21 00:00:00.0000, -3.247952400216717E+08, -2.939797352129689E+08, 7.125614674962565E+06,
2459972.500000000, A.D. 2023-Jan-28 00:00:00.0000, -3.189763916348439E+08, -3.016952402035332E+08, 9.322784482119322E+06,
2459979.500000000, A.D. 2023-Feb-04 00:00:00.0000, -3.129747644353674E+08, -3.092378358733478E+08, 1.151461369555689E+07,
2459986.500000000, A.D. 2023-Feb-11 00:00:00.0000, -3.067949926380606E+08, -3.166043802372570E+08, 1.369988987762463E+07,
2459993.500000000, A.D. 2023-Feb-18 00:00:00.0000, -3.004417178807495E+08, -3.237918398518232E+08, 1.587741887745190E+07,
2460000.500000000, A.D. 2023-Feb-25 00:00:00.0000, -2.939195882060972E+08, -3.307972867138408E+08, 1.804602446962324E+07,
2460007.500000000, A.D. 2023-Mar-04 00:00:00.0000, -2.872332572399923E+08, -3.376178953495042E+08, 2.020454798756978E+07,
2460014.500000000, A.D. 2023-Mar-11 00:00:00.0000, -2.803873835298662E+08, -3.442509400949847E+08, 2.235184795063497E+07,
2460021.500000000, A.D. 2023-Mar-18 00:00:00.0000, -2.733866299882054E+08, -3.506937926184288E+08, 2.448679967797206E+07,
2460028.500000000, A.D. 2023-Mar-25 00:00:00.0000, -2.662356632304307E+08, -3.569439197307249E+08, 2.660829486819378E+07,
2460035.500000000, A.D. 2023-Apr-01 00:00:00.0000, -2.589391523753980E+08, -3.629988810915476E+08, 2.871524113930762E+07,
2460042.500000000, A.D. 2023-Apr-08 00:00:00.0000, -2.515017679168970E+08, -3.688563255851463E+08, 3.080656168667288E+07,
2460049.500000000, A.D. 2023-Apr-15 00:00:00.0000, -2.439281829959432E+08, -3.745139874712384E+08, 3.288119518387850E+07,
2460056.500000000, A.D. 2023-Apr-22 00:00:00.0000, -2.362230752580109E+08, -3.799696853633273E+08, 3.493809551201995E+07,
2460063.500000000, A.D. 2023-Apr-29 00:00:00.0000, -2.283911265552246E+08, -3.852213217826710E+08, 3.697623125162168E+07,
2460070.500000000, A.D. 2023-May-06 00:00:00.0000, -2.204370222494209E+08, -3.902668815064186E+08, 3.899458524517640E+07,
2460077.500000000, A.D. 2023-May-13 00:00:00.0000, -2.123654510880461E+08, -3.951044296018341E+08, 4.099215424748254E+07,
2460084.500000000, A.D. 2023-May-20 00:00:00.0000, -2.041811054134422E+08, -3.997321096358585E+08, 4.296794860240842E+07,
2460091.500000000, A.D. 2023-May-27 00:00:00.0000, -1.958886815065028E+08, -4.041481420881910E+08, 4.492099192594980E+07,
2460098.500000000, A.D. 2023-Jun-03 00:00:00.0000, -1.874928800019032E+08, -4.083508229415973E+08, 4.685032079248783E+07,
2460105.500000000, A.D. 2023-Jun-10 00:00:00.0000, -1.789984063467192E+08, -4.123385224635034E+08, 4.875498442121731E+07,
2460112.500000000, A.D. 2023-Jun-17 00:00:00.0000, -1.704099712097879E+08, -4.161096842391840E+08, 5.063404435010441E+07,
2460119.500000000, A.D. 2023-Jun-24 00:00:00.0000, -1.617322905187645E+08, -4.196628244005691E+08, 5.248657407301593E+07,
2460126.500000000, A.D. 2023-Jul-01 00:00:00.0000, -1.529700848687986E+08, -4.229965302212390E+08, 5.431165868474324E+07,
2460133.500000000, A.D. 2023-Jul-08 00:00:00.0000, -1.441280799732001E+08, -4.261094572531120E+08, 5.610839475450021E+07,
2460140.500000000, A.D. 2023-Jul-15 00:00:00.0000, -1.352110094277974E+08, -4.290003278324558E+08, 5.787589031326562E+07,
$$EOE